MALLIGYONG-1            
1 58400U 23179A   24151.88637467  .00008773  00000+0  37779-3 0  9991
2 58400  97.4059  39.0155 0007974 333.3519  26.7307 15.22805816 29093
